NORAD_CAT_ID,OBJECT_NAME,OBJECT_TYPE,EPOCH,MEAN_MOTION,ECCENTRICITY,INCLINATION,RA_OF_ASC_NODE,ARG_OF_PERICENTER,MEAN_ANOMALY,BSTAR,MEAN_MOTION_DOT,MEAN_MOTION_DDOT,TLE_LINE0,TLE_LINE1,TLE_LINE2,SEMIMAJOR_AXIS,PERIOD,APOGEE,PERIGEE,DECAYED
53790.0,STARLINK-4734,PAYLOAD,2023-05-13 12:03:42,15.08844551,0.0001023,53.214,223.1779,97.0695,263.0413,0.00016302,2.308e-05,0.0,0 STARLINK-4734,1 53790U 22111T   23133.50257269  .00002308  00000-0  16302-3 0  9997,2 53790  53.2140 223.1779 0001023  97.0695 263.0413 15.08844551 38027,6917.866,95.437,540.439,539.024,0.0
53790.0,STARLINK-4734,PAYLOAD,2023-05-13 13:39:05,15.08846177,9.35e-05,53.2145,222.8836,87.6473,272.4626,0.00020745,3.016e-05,0.0,0 STARLINK-4734,1 53790U 22111T   23133.56881253  .00003016  00000-0  20745-3 0  9992,2 53790  53.2145 222.8836 0000935  87.6473 272.4626 15.08846177 37229,6917.862,95.437,540.373,539.08,0.0
53790.0,STARLINK-4734,PAYLOAD,2023-05-13 15:14:28,15.08848613,9.62e-05,53.2146,222.5858,95.4892,264.621,0.00026816,3.984e-05,0.0,0 STARLINK-4734,1 53790U 22111T   23133.63505129  .00003984  00000-0  26816-3 0  9994,2 53790  53.2146 222.5858 0000962  95.4892 264.6210 15.08848613 38043,6917.854,95.437,540.385,539.054,0.0
53790.0,STARLINK-4734,PAYLOAD,2023-05-13 23:11:24,15.08839604,8.65e-05,53.2128,221.1019,78.5725,281.5364,7.5816e-05,9.19e-06,0.0,0 STARLINK-4734,1 53790U 22111T   23133.96625447  .00000919  00000-0  75816-4 0  9996,2 53790  53.2128 221.1019 0000865  78.5725 281.5364 15.08839604 37289,6917.882,95.438,540.345,539.148,0.0
53790.0,STARLINK-4734,PAYLOAD,2023-05-14 11:54:29,15.0883509,0.000103,53.2147,218.7177,88.9122,271.1988,-4.3139e-05,-9.74e-06,0.0,0 STARLINK-4734,1 53790U 22111T   23134.49617938 -.00000974  00000-0 -43139-4 0  9997,2 53790  53.2147 218.7177 0001030  88.9122 271.1988 15.08835090 38179,6917.895,95.438,540.473,539.048,0.0
53790.0,STARLINK-4734,PAYLOAD,2023-05-14 15:05:16,15.08839167,0.0001063,53.2153,218.1248,83.3798,276.7315,2.1708e-05,5.8e-07,0.0,0 STARLINK-4734,1 53790U 22111T   23134.62865817  .00000058  00000-0  21708-4 0  9992,2 53790  53.2153 218.1248 0001063  83.3798 276.7315 15.08839167 38199,6917.883,95.438,540.483,539.013,0.0
53790.0,STARLINK-4734,PAYLOAD,2023-05-14 23:02:11,15.08837211,0.000107,53.2152,216.6379,82.4202,277.6911,3.807e-06,-2.27e-06,0.0,0 STARLINK-4734,1 53790U 22111T   23134.95985997 -.00000227  00000-0  38070-5 0  9990,2 53790  53.2152 216.6379 0001070  82.4202 277.6911 15.08837211 37430,6917.889,95.438,540.494,539.014,0.0
53790.0,STARLINK-4734,PAYLOAD,2023-05-15 11:45:16,15.08842206,9.64e-05,53.2149,214.2572,91.0232,269.0871,0.00012943,1.773e-05,0.0,0 STARLINK-4734,1 53790U 22111T   23135.48977796  .00001773  00000-0  12943-3 0  9992,2 53790  53.2149 214.2572 0000964  91.0232 269.0871 15.08842206 38324,6917.874,95.437,540.406,539.072,0.0
53790.0,STARLINK-4734,PAYLOAD,2023-05-15 14:56:02,15.08844264,9.61e-05,53.2148,213.661,101.8176,258.2924,8.1235e-05,1.005e-05,0.0,0 STARLINK-4734,1 53790U 22111T   23135.62225658  .00001005  00000-0  81235-4 0  9990,2 53790  53.2148 213.6610 0000961 101.8176 258.2924 15.08844264 38340,6917.867,95.437,540.397,539.068,0.0
53790.0,STARLINK-4734,PAYLOAD,2023-05-16 11:36:04,15.08837962,0.0001036,53.2145,209.7942,100.5439,259.567,0.00011067,1.474e-05,0.0,0 STARLINK-4734,1 53790U 22111T   23136.48338183  .00001474  00000-0  11067-3 0  9998,2 53790  53.2145 209.7942 0001036 100.5439 259.5670 15.08837962 37666,6917.887,95.438,540.468,539.035,0.0
53790.0,STARLINK-4734,PAYLOAD,2023-05-16 14:46:50,15.08837706,0.000104,53.2145,209.2001,98.6331,261.4779,9.7855e-05,1.27e-05,0.0,0 STARLINK-4734,1 53790U 22111T   23136.61586225  .00001270  00000-0  97855-4 0  9999,2 53790  53.2145 209.2001 0001040  98.6331 261.4779 15.08837706 38490,6917.887,95.438,540.472,539.033,0.0
53790.0,STARLINK-4734,PAYLOAD,2023-05-17 20:59:09,15.08839307,0.0001027,53.2154,203.5502,98.2346,261.8762,5.0561e-05,5.17e-06,0.0,0 STARLINK-4734,1 53790U 22111T   23137.87442128  .00000517  00000-0  50561-4 0  9997,2 53790  53.2154 203.5502 0001027  98.2346 261.8762 15.08839307 38686,6917.883,95.438,540.458,539.037,0.0
53790.0,STARLINK-4734,PAYLOAD,2023-05-18 03:20:42,15.08834804,0.0001096,53.2155,202.363,102.8502,257.2613,5.7392e-05,6.26e-06,0.0,0 STARLINK-4734,1 53790U 22111T   23138.13938476  .00000626  00000-0  57392-4 0  9993,2 53790  53.2155 202.3630 0001096 102.8502 257.2613 15.08834804 37914,6917.896,95.438,540.519,539.003,0.0
53790.0,STARLINK-4734,PAYLOAD,2023-05-18 11:17:38,15.08836651,0.0001084,53.2156,200.8763,105.0995,255.0117,3.7991e-05,3.17e-06,0.0,0 STARLINK-4734,1 53790U 22111T   23138.47058394  .00000317  00000-0  37991-4 0  9992,2 53790  53.2156 200.8763 0001084 105.0995 255.0117 15.08836651 38775,6917.891,95.438,540.506,539.006,0.0
53790.0,STARLINK-4734,PAYLOAD,2023-05-18 16:03:47,15.08839011,0.0001069,53.2155,199.984,104.4594,255.6517,5.4235e-05,5.75e-06,0.0,0 STARLINK-4734,1 53790U 22111T   23138.66930211  .00000575  00000-0  54235-4 0  9996,2 53790  53.2155 199.9840 0001069 104.4594 255.6517 15.08839011 38806,6917.883,95.438,540.488,539.009,0.0
53790.0,STARLINK-4734,PAYLOAD,2023-05-19 03:11:31,15.08824322,0.000109,53.2159,197.9029,85.751,274.3607,-6.3892e-05,-1.304e-05,0.0,0 STARLINK-4734,1 53790U 22111T   23139.13299804 -.00001304  00000-0 -63892-4 0  9997,2 53790  53.2159 197.9029 0001090  85.7510 274.3607 15.08824322 38065,6917.928,95.439,540.547,539.039,0.0
53790.0,STARLINK-4734,PAYLOAD,2023-05-19 09:33:02,15.08836726,0.0001111,53.2157,196.7131,105.8123,254.2991,3.4344e-05,2.59e-06,0.0,0 STARLINK-4734,1 53790U 22111T   23139.39794517  .00000259  00000-0  34344-4 0  9992,2 53790  53.2157 196.7131 0001111 105.8123 254.2991 15.08836726 38101,6917.89,95.438,540.524,538.987,0.0
53790.0,STARLINK-4734,PAYLOAD,2023-05-19 20:40:44,15.08837897,0.0001026,53.2157,194.6322,92.3639,267.7471,4.9614e-05,5.02e-06,0.0,0 STARLINK-4734,1 53790U 22111T   23139.86162490  .00000502  00000-0  49614-4 0  9990,2 53790  53.2157 194.6322 0001026  92.3639 267.7471 15.08837897 38985,6917.887,95.438,540.462,539.042,0.0
53790.0,STARLINK-4734,PAYLOAD,2023-05-20 12:34:35,15.0884839,0.0001014,53.2156,191.658,90.73,269.3808,0.0001437,2e-05,0.0,0 STARLINK-4734,1 53790U 22111T   23140.52401670  .00002000  00000-0  14370-3 0  9996,2 53790  53.2156 191.6580 0001014  90.7300 269.3808 15.08848390 38275,6917.855,95.437,540.421,539.018,0.0
53790.0,STARLINK-4734,PAYLOAD,2023-05-20 20:31:30,15.08845831,0.0001123,53.2161,190.171,86.0812,274.0309,9.8264e-05,1.277e-05,0.0,0 STARLINK-4734,1 53790U 22111T   23140.85521890  .00001277  00000-0  98264-4 0  9999,2 53790  53.2161 190.1710 0001123  86.0812 274.0309 15.08845831 39139,6917.863,95.437,540.504,538.951,0.0
53790.0,STARLINK-4734,PAYLOAD,2023-05-21 07:39:12,15.08845696,0.0001125,53.216,188.0894,86.0173,274.0947,0.00011281,1.508e-05,0.0,0 STARLINK-4734,1 53790U 22111T   23141.31889790  .00001508  00000-0  11281-3 0  9997,2 53790  53.2160 188.0894 0001125  86.0173 274.0947 15.08845696 38393,6917.863,95.437,540.506,538.95,0.0
53790.0,STARLINK-4734,PAYLOAD,2023-05-21 12:25:21,15.08847879,0.0001108,53.2158,187.1971,85.9931,274.1188,0.00012355,1.679e-05,0.0,0 STARLINK-4734,1 53790U 22111T   23141.51761555  .00001679  00000-0  12355-3 0  9999,2 53790  53.2158 187.1971 0001108  85.9931 274.1188 15.08847879 39234,6917.856,95.437,540.488,538.955,0.0
53790.0,STARLINK-4734,PAYLOAD,2023-05-21 20:22:18,15.08835504,0.0001083,53.2162,185.7055,85.3288,274.7828,8.6997e-06,-1.49e-06,0.0,0 STARLINK-4734,1 53790U 22111T   23141.84882527 -.00000149  00000-0  86997-5 0  9995,2 53790  53.2162 185.7055 0001083  85.3288 274.7828 15.08835504 39281,6917.894,95.438,540.508,539.01,0.0
53790.0,STARLINK-4734,PAYLOAD,2023-05-22 04:19:14,15.08835705,0.000106,53.2166,184.2159,94.4393,265.6721,-1.3814e-05,-5.08e-06,0.0,0 STARLINK-4734,1 53790U 22111T   23142.18002701 -.00000508  00000-0 -13814-4 0  9998,2 53790  53.2166 184.2159 0001060  94.4393 265.6721 15.08835705 38527,6917.894,95.438,540.492,539.025,0.0
53790.0,STARLINK-4734,PAYLOAD,2023-05-22 09:05:23,15.08834947,0.0001079,53.2161,183.3262,89.7767,270.3349,-1.7143e-05,-5.61e-06,0.0,0 STARLINK-4734,1 53790U 22111T   23142.37874799 -.00000561  00000-0 -17143-4 0  9991,2 53790  53.2161 183.3262 0001079  89.7767 270.3349 15.08834947 39368,6917.896,95.438,540.507,539.014,0.0
53790.0,STARLINK-4734,PAYLOAD,2023-05-22 20:13:05,15.08836933,9.77e-05,53.2161,181.2437,108.3176,251.7923,-1.2332e-05,-4.84e-06,0.0,0 STARLINK-4734,1 53790U 22111T   23142.84242743 -.00000484  00000-0 -12332-4 0  9990,2 53790  53.2161 181.2437 0000977 108.3176 251.7923 15.08836933 39433,6917.89,95.438,540.431,539.079,0.0
53790.0,STARLINK-4734,PAYLOAD,2023-05-23 08:56:10,15.0884707,9.27e-05,53.2158,178.8681,91.8386,268.2712,-3.6967e-06,-3.47e-06,0.0,0 STARLINK-4734,1 53790U 22111T   23143.37234311 -.00000347  00000-0 -36967-5 0  9990,2 53790  53.2158 178.8681 0000927  91.8386 268.2712 15.08847070 38708,6917.859,95.437,540.365,539.082,0.0
53790.0,STARLINK-4734,PAYLOAD,2023-05-24 08:46:58,15.08841173,0.0001081,53.2144,174.4098,72.8499,287.2611,0.00022092,3.23e-05,0.0,0 STARLINK-4734,1 53790U 22111T   23144.36594938  .00003230  00000-0  22092-3 0  9998,2 53790  53.2144 174.4098 0001081  72.8499 287.2611 15.08841173 38856,6917.877,95.437,540.49,538.994,0.0
53790.0,STARLINK-4734,PAYLOAD,2023-05-26 05:17:45,15.08838438,0.0001101,53.2153,166.0824,87.9947,272.1172,5.1844e-05,5.37e-06,0.0,0 STARLINK-4734,1 53790U 22111T   23146.22067126  .00000537  00000-0  51844-4 0  9994,2 53790  53.2153 166.0824 0001101  87.9947 272.1172 15.08838438 39135,6917.885,95.438,540.512,538.989,0.0
53790.0,STARLINK-4734,PAYLOAD,2023-05-26 06:53:09,15.08837808,0.0001087,53.2153,165.785,87.8268,272.2849,4.1998e-05,3.81e-06,0.0,0 STARLINK-4734,1 53790U 22111T   23146.28691183  .00000381  00000-0  41998-4 0  9992,2 53790  53.2153 165.7850 0001087  87.8268 272.2849 15.08837808 39950,6917.887,95.438,540.504,539.0,0.0
